{"type": "FeatureCollection", "features": [ {"type": "Feature", "properties": {"norad_id": 66459, "name": "STARLINK-35449", "group": "last-30-days", "lat": 18.234633476104957, "lon": 123.05302953915844, "alt_km": 417.88404184749197, "timestamp": "2025-12-07T09:35:08.569703+00:00", "meta": {"OBJECT_NAME": "STARLINK-35449", "OBJECT_ID": "2025-262D", "EPOCH": "2025-12-07T00:00:02.000160", "MEAN_MOTION": 15.50565623, "ECCENTRICITY": 0.00013446, "INCLINATION": 43.0007, "RA_OF_ASC_NODE": 104.6823, "ARG_OF_PERICENTER": 271.0347, "MEAN_ANOMALY": 45.6491, "EPHEMERIS_TYPE": 0, "CLASSIFICATION_TYPE": "U", "NORAD_CAT_ID": 66459, "ELEMENT_SET_NO": 999, "REV_AT_EPOCH": 471, "BSTAR": -0.040643282, "MEAN_MOTION_DOT": -0.02114418, "MEAN_MOTION_DDOT": 0}, "tle": {"line1": "1 66459U 25262D   25341.00002315 -.02114418  00000+0 -40643-1 0  9993", "line2": "2 66459  43.0007 104.6823 0001344 271.0347  45.6491 15.50565623  4715"}}, "geometry": {"type": "Point", "coordinates": [123.05302953915844, 18.234633476104957]}}, {"type": "Feature", "properties": {"norad_id": 66460, "name": "STARLINK-35424", "group": "last-30-days", "lat": 20.232234196587612, "lon": 125.6389182709341, "alt_km": 413.60229406995677, "timestamp": "2025-12-07T09:35:08.569713+00:00", "meta": {"OBJECT_NAME": "STARLINK-35424", "OBJECT_ID": "2025-262E", "EPOCH": "2025-12-07T00:00:02.000160", "MEAN_MOTION": 15.50866995, "ECCENTRICITY": 0.00017979, "INCLINATION": 43.0008, "RA_OF_ASC_NODE": 104.6774, "ARG_OF_PERICENTER": 269.7027, "MEAN_ANOMALY": 48.8655, "EPHEMERIS_TYPE": 0, "CLASSIFICATION_TYPE": "U", "NORAD_CAT_ID": 66460, "ELEMENT_SET_NO": 999, "REV_AT_EPOCH": 471, "BSTAR": -0.014893441, "MEAN_MOTION_DOT": -0.00809572, "MEAN_MOTION_DDOT": 0}, "tle": {"line1": "1 66460U 25262E   25341.00002315 -.00809572  00000+0 -14893-1 0  9993", "line2": "2 66460  43.0008 104.6774 0001797 269.7027  48.8655 15.50866995  4717"}}, "geometry": {"type": "Point", "coordinates": [125.6389182709341, 20.232234196587612]}}, {"type": "Feature", "properties": {"norad_id": 66461, "name": "STARLINK-35132", "group": "last-30-days", "lat": 21.513913914678124, "lon": 127.36026426747057, "alt_km": 412.1750912818252, "timestamp": "2025-12-07T09:35:08.569723+00:00", "meta": {"OBJECT_NAME": "STARLINK-35132", "OBJECT_ID": "2025-262F", "EPOCH": "2025-12-07T00:00:02.000160", "MEAN_MOTION": 15.50591265, "ECCENTRICITY": 0.00013255, "INCLINATION": 43.0006, "RA_OF_ASC_NODE": 104.672, "ARG_OF_PERICENTER": 264.3945, "MEAN_ANOMALY": 56.1479, "EPHEMERIS_TYPE": 0, "CLASSIFICATION_TYPE": "U", "NORAD_CAT_ID": 66461, "ELEMENT_SET_NO": 999, "REV_AT_EPOCH": 471, "BSTAR": -0.0004165329, "MEAN_MOTION_DOT": -0.00024711, "MEAN_MOTION_DDOT": 0}, "tle": {"line1": "1 66461U 25262F   25341.00002315 -.00024711  00000+0 -41653-3 0  9994", "line2": "2 66461  43.0006 104.6720 0001325 264.3945  56.1479 15.50591265  4715"}}, "geometry": {"type": "Point", "coordinates": [127.36026426747057, 21.513913914678124]}}, {"type": "Feature", "properties": {"norad_id": 66462, "name": "STARLINK-35499", "group": "last-30-days", "lat": 22.684235994712015, "lon": 128.98095705776552, "alt_km": 412.2411713532665, "timestamp": "2025-12-07T09:35:08.569734+00:00", "meta": {"OBJECT_NAME": "STARLINK-35499", "OBJECT_ID": "2025-262G", "EPOCH": "2025-12-07T00:00:02.000160", "MEAN_MOTION": 15.50633867, "ECCENTRICITY": 0.00014914, "INCLINATION": 43.0009, "RA_OF_ASC_NODE": 104.6674, "ARG_OF_PERICENTER": 263.144, "MEAN_ANOMALY": 59.3069, "EPHEMERIS_TYPE": 0, "CLASSIFICATION_TYPE": "U", "NORAD_CAT_ID": 66462, "ELEMENT_SET_NO": 999, "REV_AT_EPOCH": 471, "BSTAR": -0.0023574789, "MEAN_MOTION_DOT": -0.00136527, "MEAN_MOTION_DDOT": 0}, "tle": {"line1": "1 66462U 25262G   25341.00002315 -.00136527  00000+0 -23575-2 0  9996", "line2": "2 66462  43.0009 104.6674 0001491 263.1440  59.3069 15.50633867  4713"}}, "geometry": {"type": "Point", "coordinates": [128.98095705776552, 22.684235994712015]}}, {"type": "Feature", "properties": {"norad_id": 66463, "name": "STARLINK-35463", "group": "last-30-days", "lat": 24.987891422111126, "lon": 132.3290296851249, "alt_km": 411.89676853309174, "timestamp": "2025-12-07T09:35:08.569744+00:00", "meta": {"OBJECT_NAME": "STARLINK-35463", "OBJECT_ID": "2025-262H", "EPOCH": "2025-12-07T00:00:02.000160", "MEAN_MOTION": 15.50629601, "ECCENTRICITY": 0.0001574, "INCLINATION": 43.0009, "RA_OF_ASC_NODE": 104.6577, "ARG_OF_PERICENTER": 266.6288, "MEAN_ANOMALY": 59.6567, "EPHEMERIS_TYPE": 0, "CLASSIFICATION_TYPE": "U", "NORAD_CAT_ID": 66463, "ELEMENT_SET_NO": 999, "REV_AT_EPOCH": 471, "BSTAR": -0.0021705605, "MEAN_MOTION_DOT": -0.0012588, "MEAN_MOTION_DDOT": 0}, "tle": {"line1": "1 66463U 25262H   25341.00002315 -.00125880  00000+0 -21706-2 0  9991", "line2": "2 66463  43.0009 104.6577 0001574 266.6288  59.6567 15.50629601  4713"}}, "geometry": {"type": "Point", "coordinates": [132.3290296851249, 24.987891422111126]}}, {"type": "Feature", "properties": {"norad_id": 66464, "name": "STARLINK-35435", "group": "last-30-days", "lat": 23.845431509155862, "lon": 130.64121620383898, "alt_km": 412.0287341957319, "timestamp": "2025-12-07T09:35:08.569754+00:00", "meta": {"OBJECT_NAME": "STARLINK-35435", "OBJECT_ID": "2025-262J", "EPOCH": "2025-12-07T00:00:02.000160", "MEAN_MOTION": 15.50635337, "ECCENTRICITY": 0.0001452, "INCLINATION": 43.0009, "RA_OF_ASC_NODE": 104.6633, "ARG_OF_PERICENTER": 265.0231, "MEAN_ANOMALY": 59.343, "EPHEMERIS_TYPE": 0, "CLASSIFICATION_TYPE": "U", "NORAD_CAT_ID": 66464, "ELEMENT_SET_NO": 999, "REV_AT_EPOCH": 471, "BSTAR": -0.0023206791, "MEAN_MOTION_DOT": -0.00134443, "MEAN_MOTION_DDOT": 0}, "tle": {"line1": "1 66464U 25262J   25341.00002315 -.00134443  00000+0 -23207-2 0  9995", "line2": "2 66464  43.0009 104.6633 0001452 265.0231  59.3430 15.50635337  4712"}}, "geometry": {"type": "Point", "coordinates": [130.64121620383898, 23.845431509155862]}}, {"type": "Feature", "properties": {"norad_id": 66465, "name": "STARLINK-35448", "group": "last-30-days", "lat": 27.21421529697615, "lon": 135.80497471883675, "alt_km": 411.6232558109514, "timestamp": "2025-12-07T09:35:08.569766+00:00", "meta": {"OBJECT_NAME": "STARLINK-35448", "OBJECT_ID": "2025-262K", "EPOCH": "2025-12-07T00:00:02.000160", "MEAN_MOTION": 15.5064191, "ECCENTRICITY": 0.00016141, "INCLINATION": 43.0009, "RA_OF_ASC_NODE": 104.6485, "ARG_OF_PERICENTER": 266.8544, "MEAN_ANOMALY": 63.2633, "EPHEMERIS_TYPE": 0, "CLASSIFICATION_TYPE": "U", "NORAD_CAT_ID": 66465, "ELEMENT_SET_NO": 999, "REV_AT_EPOCH": 471, "BSTAR": -0.0025521679, "MEAN_MOTION_DOT": -0.00147611, "MEAN_MOTION_DDOT": 0}, "tle": {"line1": "1 66465U 25262K   25341.00002315 -.00147611  00000+0 -25522-2 0  9999", "line2": "2 66465  43.0009 104.6485 0001614 266.8544  63.2633 15.50641910  4717"}}, "geometry": {"type": "Point", "coordinates": [135.80497471883675, 27.21421529697615]}}, {"type": "Feature", "properties": {"norad_id": 66466, "name": "STARLINK-35388", "group": "last-30-days", "lat": 28.29322204353119, "lon": 137.59071643599614, "alt_km": 411.44205958047405, "timestamp": "2025-12-07T09:35:08.569776+00:00", "meta": {"OBJECT_NAME": "STARLINK-35388", "OBJECT_ID": "2025-262L", "EPOCH": "2025-12-07T00:00:02.000160", "MEAN_MOTION": 15.50643023, "ECCENTRICITY": 0.00015256, "INCLINATION": 43.0008, "RA_OF_ASC_NODE": 104.6423, "ARG_OF_PERICENTER": 266.1987, "MEAN_ANOMALY": 65.8357, "EPHEMERIS_TYPE": 0, "CLASSIFICATION_TYPE": "U", "NORAD_CAT_ID": 66466, "ELEMENT_SET_NO": 999, "REV_AT_EPOCH": 471, "BSTAR": -0.0025809296, "MEAN_MOTION_DOT": -0.00149244, "MEAN_MOTION_DDOT": 0}, "tle": {"line1": "1 66466U 25262L   25341.00002315 -.00149244  00000+0 -25809-2 0  9992", "line2": "2 66466  43.0008 104.6423 0001525 266.1987  65.8357 15.50643023  4712"}}, "geometry": {"type": "Point", "coordinates": [137.59071643599614, 28.29322204353119]}}, {"type": "Feature", "properties": {"norad_id": 66467, "name": "STARLINK-35682", "group": "last-30-days", "lat": 26.111843247706467, "lon": 134.05138844350103, "alt_km": 411.83541767897077, "timestamp": "2025-12-07T09:35:08.569786+00:00", "meta": {"OBJECT_NAME": "STARLINK-35682", "OBJECT_ID": "2025-262M", "EPOCH": "2025-12-07T00:00:02.000160", "MEAN_MOTION": 15.5065376, "ECCENTRICITY": 0.0001658, "INCLINATION": 43.0009, "RA_OF_ASC_NODE": 104.6536, "ARG_OF_PERICENTER": 265.0433, "MEAN_ANOMALY": 63.1512, "EPHEMERIS_TYPE": 0, "CLASSIFICATION_TYPE": "U", "NORAD_CAT_ID": 66467, "ELEMENT_SET_NO": 999, "REV_AT_EPOCH": 471, "BSTAR": -0.0029085721, "MEAN_MOTION_DOT": -0.00167819, "MEAN_MOTION_DDOT": 0}, "tle": {"line1": "1 66467U 25262M   25341.00002315 -.00167819  00000+0 -29086-2 0  9992", "line2": "2 66467  43.0009 104.6536 0001658 265.0433  63.1512 15.50653760  4713"}}, "geometry": {"type": "Point", "coordinates": [134.05138844350103, 26.111843247706467]}}, {"type": "Feature", "properties": {"norad_id": 66468, "name": "STARLINK-35331", "group": "last-30-days", "lat": 29.34824782554944, "lon": 139.4144628770109, "alt_km": 411.36584366873467, "timestamp": "2025-12-07T09:35:08.569799+00:00", "meta": {"OBJECT_NAME": "STARLINK-35331", "OBJECT_ID": "2025-262N", "EPOCH": "2025-12-07T00:00:02.000160", "MEAN_MOTION": 15.50641175, "ECCENTRICITY": 0.00016019, "INCLINATION": 43.0009, "RA_OF_ASC_NODE": 104.6383, "ARG_OF_PERICENTER": 263.7106, "MEAN_ANOMALY": 70.2413, "EPHEMERIS_TYPE": 0, "CLASSIFICATION_TYPE": "U", "NORAD_CAT_ID": 66468, "ELEMENT_SET_NO": 999, "REV_AT_EPOCH": 471, "BSTAR": -0.0025459221, "MEAN_MOTION_DOT": -0.00147253, "MEAN_MOTION_DDOT": 0}, "tle": {"line1": "1 66468U 25262N   25341.00002315 -.00147253  00000+0 -25459-2 0  9993", "line2": "2 66468  43.0009 104.6383 0001601 263.7106  70.2413 15.50641175  4710"}}, "geometry": {"type": "Point", "coordinates": [139.4144628770109, 29.34824782554944]}}]}